NORAD_CAT_ID,OBJECT_NAME,OBJECT_TYPE,EPOCH,MEAN_MOTION,ECCENTRICITY,INCLINATION,RA_OF_ASC_NODE,ARG_OF_PERICENTER,MEAN_ANOMALY,BSTAR,MEAN_MOTION_DOT,MEAN_MOTION_DDOT,TLE_LINE0,TLE_LINE1,TLE_LINE2,SEMIMAJOR_AXIS,PERIOD,APOGEE,PERIGEE,DECAYED
56783.0,STARLINK-6357,PAYLOAD,2024-03-21 21:36:58,14.98327515,0.0003114,70.0006,334.3368,267.5443,92.536,1.7796e-05,1.19e-06,0.0,0 STARLINK-6357,1 56783U 23078S   24081.90068036  .00000119  00000-0  17796-4 0  9991,2 56783  70.0006 334.3368 0003114 267.5443  92.5360 14.98327515 45654,6950.201,96.107,574.23,569.901,0.0
56783.0,STARLINK-6357,PAYLOAD,2024-03-22 02:25:22,14.98339277,0.0003089,70.0005,333.8325,269.7025,90.3781,0.00013532,1.522e-05,0.0,0 STARLINK-6357,1 56783U 23078S   24082.10094945  .00001522  00000-0  13532-3 0  9994,2 56783  70.0005 333.8325 0003089 269.7025  90.3781 14.98339277 45944,6950.164,96.106,574.176,569.882,0.0
56783.0,STARLINK-6357,PAYLOAD,2024-03-22 20:02:51,14.98319027,0.0002562,70.0018,331.982,262.5087,97.5781,0.00017062,1.943e-05,0.0,0 STARLINK-6357,1 56783U 23078S   24082.83532227  .00001943  00000-0  17062-3 0  9993,2 56783  70.0018 331.9820 0002562 262.5087  97.5781 14.98319027 46054,6950.227,96.108,573.872,570.311,0.0
56783.0,STARLINK-6357,PAYLOAD,2024-03-22 21:39:00,14.98318384,0.0002516,70.0019,331.8135,259.8549,100.2327,0.00015876,1.801e-05,0.0,0 STARLINK-6357,1 56783U 23078S   24082.90208337  .00001801  00000-0  15876-3 0  9997,2 56783  70.0019 331.8135 0002516 259.8549 100.2327 14.98318384 45809,6950.229,96.108,573.842,570.345,0.0
56783.0,STARLINK-6357,PAYLOAD,2024-03-23 20:04:52,14.98330772,0.0002747,70.0019,329.4578,266.612,93.4725,8.1335e-06,4e-08,0.0,0 STARLINK-6357,1 56783U 23078S   24083.83672182  .00000004  00000-0  81335-5 0  9992,2 56783  70.0019 329.4578 0002747 266.6120  93.4725 14.98330772 46205,6950.191,96.107,573.965,570.146,0.0
56783.0,STARLINK-6357,PAYLOAD,2024-03-24 02:29:24,14.98330928,0.000244,70.002,328.7849,256.2663,103.8224,0.00022931,2.644e-05,0.0,0 STARLINK-6357,1 56783U 23078S   24084.10375496  .00002644  00000-0  22931-3 0  9998,2 56783  70.0020 328.7849 0002440 256.2663 103.8224 14.98330928 46244,6950.19,96.107,573.751,570.359,0.0
56783.0,STARLINK-6357,PAYLOAD,2024-03-24 21:43:01,14.98331255,0.0002668,70.001,326.7641,263.9483,96.1372,2.5201e-05,2.08e-06,0.0,0 STARLINK-6357,1 56783U 23078S   24084.90487737  .00000208  00000-0  25201-4 0  9996,2 56783  70.0010 326.7641 0002668 263.9483  96.1372 14.98331255 46105,6950.189,96.107,573.908,570.2,0.0
56783.0,STARLINK-6357,PAYLOAD,2024-03-25 02:31:24,14.98339008,0.0002456,70.0014,326.2595,256.3426,103.746,0.00011028,1.223e-05,0.0,0 STARLINK-6357,1 56783U 23078S   24085.10514969  .00001223  00000-0  11028-3 0  9996,2 56783  70.0014 326.2595 0002456 256.3426 103.7460 14.98339008 46398,6950.165,96.106,573.737,570.323,0.0
56783.0,STARLINK-6357,PAYLOAD,2024-03-25 08:55:58,14.98326886,0.000248,70.0016,325.585,274.6195,85.4681,-4.9833e-05,-6.87e-06,0.0,0 STARLINK-6357,1 56783U 23078S   24085.37220101 -.00000687  00000-0 -49833-4 0  9998,2 56783  70.0016 325.5850 0002480 274.6195  85.4681 14.98326886 46435,6950.203,96.107,573.791,570.344,0.0
56783.0,STARLINK-6357,PAYLOAD,2024-03-25 20:08:55,14.98322585,0.0002583,70.0018,324.411,255.2124,104.8749,-0.00016884,-2.106e-05,0.0,0 STARLINK-6357,1 56783U 23078S   24085.83952728 -.00002106  00000-0 -16884-3 0  9993,2 56783  70.0018 324.4110 0002583 255.2124 104.8749 14.98322585 46506,6950.216,96.107,573.876,570.286,0.0
56783.0,STARLINK-6357,PAYLOAD,2024-03-25 21:45:03,14.98319864,0.0002548,70.001,324.2393,259.7543,100.3329,-0.00017575,-2.189e-05,0.0,0 STARLINK-6357,1 56783U 23078S   24085.90629002 -.00002189  00000-0 -17575-3 0  9996,2 56783  70.0010 324.2393 0002548 259.7543 100.3329 14.98319864 46257,6950.224,96.108,573.86,570.318,0.0
56783.0,STARLINK-6357,PAYLOAD,2024-03-26 08:57:59,14.98329626,0.000267,70.0007,323.0595,277.9201,82.1655,-0.00019935,-2.471e-05,0.0,0 STARLINK-6357,1 56783U 23078S   24086.37360594 -.00002471  00000-0 -19935-3 0  9992,2 56783  70.0007 323.0595 0002670 277.9201  82.1655 14.98329626 46585,6950.194,96.107,573.915,570.203,0.0
56783.0,STARLINK-6357,PAYLOAD,2024-03-26 21:47:03,14.98325696,0.0002922,70.0003,321.7131,272.4523,87.6302,-8.1464e-06,-1.9e-06,0.0,0 STARLINK-6357,1 56783U 23078S   24086.90768453 -.00000190  00000-0 -81464-5 0  9991,2 56783  70.0003 321.7131 0002922 272.4523  87.6302 14.98325696 46402,6950.206,96.107,574.102,570.04,0.0
56783.0,STARLINK-6357,PAYLOAD,2024-03-27 09:00:00,14.98330772,0.0002675,70.0004,320.5349,271.9558,88.1294,-8.4262e-05,-1.098e-05,0.0,0 STARLINK-6357,1 56783U 23078S   24087.37500422 -.00001098  00000-0 -84262-4 0  9999,2 56783  70.0004 320.5349 0002675 271.9558  88.1294 14.98330772 46731,6950.191,96.107,573.915,570.196,0.0
56783.0,STARLINK-6357,PAYLOAD,2024-03-27 21:49:04,14.98326933,0.0002962,70.0002,319.1876,271.9556,88.1264,8.619e-05,9.35e-06,0.0,0 STARLINK-6357,1 56783U 23078S   24087.90908345  .00000935  00000-0  86190-4 0  9993,2 56783  70.0002 319.1876 0002962 271.9556  88.1264 14.98326933 46556,6950.202,96.107,574.126,570.009,0.0
56783.0,STARLINK-6357,PAYLOAD,2024-03-28 09:02:01,14.98328681,0.0002838,70.0003,318.009,269.1241,90.9593,9.373e-05,1.026e-05,0.0,0 STARLINK-6357,1 56783U 23078S   24088.37640294  .00001026  00000-0  93730-4 0  9991,2 56783  70.0003 318.0090 0002838 269.1241  90.9593 14.98328681 46889,6950.197,96.107,574.034,570.09,0.0
56783.0,STARLINK-6357,PAYLOAD,2024-03-28 21:51:05,14.98330526,0.0002895,70.0001,316.6625,267.86,92.2228,6.934e-05,7.34e-06,0.0,0 STARLINK-6357,1 56783U 23078S   24088.91048208  .00000734  00000-0  69340-4 0  9993,2 56783  70.0001 316.6625 0002895 267.8600  92.2228 14.98330526 46704,6950.191,96.107,574.068,570.044,0.0
56783.0,STARLINK-6357,PAYLOAD,2024-03-29 01:03:21,14.98350912,0.0002998,70.0003,316.326,267.0534,93.0282,-0.0002017,-2.5e-05,0.0,0 STARLINK-6357,1 56783U 23078S   24089.04399533 -.00002500  00000-0 -20170-3 0  9990,2 56783  70.0003 316.3260 0002998 267.0534  93.0282 14.98350912 46980,6950.128,96.106,574.077,569.91,0.0
56783.0,STARLINK-6357,PAYLOAD,2024-03-29 10:40:10,14.98328487,0.0002787,70.0007,315.3157,270.7696,89.3144,-2.7096e-05,-4.16e-06,0.0,0 STARLINK-6357,1 56783U 23078S   24089.44456533 -.00000416  00000-0 -27096-4 0  9997,2 56783  70.0007 315.3157 0002787 270.7696  89.3144 14.98328487 47049,6950.198,96.107,574.0,570.126,0.0
56783.0,STARLINK-6357,PAYLOAD,2024-03-29 21:53:07,14.9832342,0.0002812,70.0007,314.1389,270.4003,89.6834,-0.00010192,-1.309e-05,0.0,0 STARLINK-6357,1 56783U 23078S   24089.91189183 -.00001309  00000-0 -10192-3 0  9993,2 56783  70.0007 314.1389 0002812 270.4003  89.6834 14.98323420 46850,6950.213,96.107,574.033,570.124,0.0
56783.0,STARLINK-6357,PAYLOAD,2024-03-30 01:05:23,14.98324096,0.0002796,70.0008,313.8023,270.6225,89.4613,-9.0106e-05,-1.168e-05,0.0,0 STARLINK-6357,1 56783U 23078S   24090.04541168 -.00001168  00000-0 -90106-4 0  9991,2 56783  70.0008 313.8023 0002796 270.6225  89.4613 14.98324096 47136,6950.211,96.107,574.019,570.133,0.0
56783.0,STARLINK-6357,PAYLOAD,2024-03-30 20:18:57,14.983556,0.0002778,70.0011,311.7825,275.9556,84.1286,0.00019309,2.213e-05,0.0,0 STARLINK-6357,1 56783U 23078S   24090.84649592  .00002213  00000-0  19309-3 0  9994,2 56783  70.0011 311.7825 0002778 275.9556  84.1286 14.98355600 47258,6950.114,96.105,573.909,570.048,0.0
56783.0,STARLINK-6357,PAYLOAD,2024-03-30 21:55:05,14.98349835,0.0003184,70.0007,311.6116,275.5778,84.5018,0.00016473,1.874e-05,0.0,0 STARLINK-6357,1 56783U 23078S   24090.91325956  .00001874  00000-0  16473-3 0  9998,2 56783  70.0007 311.6116 0003184 275.5778  84.5018 14.98349835 47002,6950.132,96.106,574.209,569.784,0.0
56783.0,STARLINK-6357,PAYLOAD,2024-03-31 01:07:23,14.98322648,0.0002555,70.002,311.2742,284.5022,75.5853,-0.00014553,-1.829e-05,0.0,0 STARLINK-6357,1 56783U 23078S   24091.04680367 -.00001829  00000-0 -14553-3 0  9992,2 56783  70.0020 311.2742 0002555 284.5022  75.5853 14.98322648 47281,6950.216,96.107,573.856,570.305,0.0
56783.0,STARLINK-6357,PAYLOAD,2024-03-31 13:56:28,14.98320251,0.0003019,70.0001,309.9289,275.7127,84.3687,-3.3406e-05,-4.91e-06,0.0,0 STARLINK-6357,1 56783U 23078S   24091.58088132 -.00000491  00000-0 -33406-4 0  9996,2 56783  70.0001 309.9289 0003019 275.7127  84.3687 14.98320251 47106,6950.223,96.108,574.186,569.99,0.0
56783.0,STARLINK-6357,PAYLOAD,2024-03-31 20:21:00,14.98323001,0.0003037,69.9996,309.2573,269.0725,91.0086,4.0669e-06,-4.4e-07,0.0,0 STARLINK-6357,1 56783U 23078S   24091.84791898 -.00000044  00000-0  40669-5 0  9998,2 56783  69.9996 309.2573 0003037 269.0725  91.0086 14.98323001 47402,6950.215,96.107,574.19,569.969,0.0
56783.0,STARLINK-6357,PAYLOAD,2024-03-31 21:57:08,14.98325296,0.0002953,69.9997,309.0882,270.3054,89.7766,2.1894e-05,1.68e-06,0.0,0 STARLINK-6357,1 56783U 23078S   24091.91467698  .00000168  00000-0  21894-4 0  9998,2 56783  69.9997 309.0882 0002953 270.3054  89.7766 14.98325296 47159,6950.207,96.107,574.125,570.02,0.0
56783.0,STARLINK-6357,PAYLOAD,2024-04-01 13:58:28,14.98317648,0.000285,70.0002,307.4029,271.6007,88.4825,4.2355e-05,4.12e-06,0.0,0 STARLINK-6357,1 56783U 23078S   24092.58227771  .00000412  00000-0  42355-4 0  9995,2 56783  70.0002 307.4029 0002850 271.6007  88.4825 14.98317648 47257,6950.231,96.108,574.077,570.115,0.0
56783.0,STARLINK-6357,PAYLOAD,2024-04-01 20:23:01,14.98316018,0.0003006,69.9997,306.7329,265.7087,94.3729,6.7807e-05,7.16e-06,0.0,0 STARLINK-6357,1 56783U 23078S   24092.84931951  .00000716  00000-0  67807-4 0  9992,2 56783  69.9997 306.7329 0003006 265.7087  94.3729 14.98316018 47550,6950.236,96.108,574.19,570.012,0.0
56783.0,STARLINK-6357,PAYLOAD,2024-04-02 07:35:57,14.98313076,0.0002939,69.9993,305.5535,267.73,92.3523,0.00021075,2.421e-05,0.0,0 STARLINK-6357,1 56783U 23078S   24093.31664126  .00002421  00000-0  21075-3 0  9993,2 56783  69.9993 305.5535 0002939 267.7300  92.3523 14.98313076 47366,6950.245,96.108,574.153,570.068,0.0
